0 FENGYUN 1C DEB
1 37896U 99025EMV 13282.01137216  .00013814  00000-0  13702-2 0   460
2 37896 098.6228 359.6027 0342952 108.2592 190.6331 14.56779046202943
0 FENGYUN 1C DEB
1 37896U 99025EMV 13287.44962237  .00016180  00000-0  16389-2 0   475
2 37896 098.6029 005.2029 0337229 091.0314 273.6493 14.56976812203740
0 FENGYUN 1C DEB
1 37896U 99025EMV 13294.46384378  .00017381  00000-0  17148-2 0   488
2 37896 098.6110 012.4883 0341077 070.2159 346.6991 14.57229518204763
